IRIDIUM 116             
1 43072U 17083C   25211.93096240  .00000041  00000+0  76948-5 0  9992
2 43072  86.3943  96.3258 0002069  92.0056 268.1376 14.34217832398124
IRIDIUM 130             
1 43073U 17083D   25211.96901763  .00000055  00000+0  12460-4 0  9994
2 43073  86.3953  96.5540 0001841  92.0914 268.0492 14.34217769398073
IRIDIUM 151             
1 43074U 17083E   25211.73434206 -.00000013  00000+0 -11800-4 0  9996
2 43074  86.3946  96.4584 0001975  92.0438 268.0984 14.34217339398060
IRIDIUM 134             
1 43075U 17083F   25211.91193413  .00000041  00000+0  75076-5 0  9994
2 43075  86.3947  96.3879 0001869  89.2797 270.8613 14.34217796398052
IRIDIUM 137             
1 43076U 17083G   25212.20369482  .00000027  00000+0  27084-5 0  9999
2 43076  86.3950  96.3522 0002472  98.6475 261.5001 14.34217715398161
IRIDIUM 141             
1 43077U 17083H   25211.91827708  .00000181  00000+0  57719-4 0  9995
2 43077  86.3946  96.3204 0002241  81.1891 278.9559 14.34217837398128
IRIDIUM 153             
1 43078U 17083J   25211.87045488  .00000081  00000+0  21860-4 0  9995
2 43078  86.3926  64.7952 0002159  75.3969 284.7466 14.34217012399224
IRIDIUM 131             
1 43079U 17083K   25211.76605532 -.00000004  00000+0 -85692-5 0  9997
2 43079  86.3953  96.5486 0002174  83.6555 276.4888 14.34217492398036
